{
    "links": {
        "self": "http://www.neowsapp.com/rest/v1/neo/3766993?api_key=iIulBulltgU6a56xZRHN4H3l9WmuAYTsLGpBGhQ2"
    },
    "id": "3766993",
    "neo_reference_id": "3766993",
    "name": "(2017 BB6)",
    "designation": "2017 BB6",
    "nasa_jpl_url": "http://ssd.jpl.nasa.gov/sbdb.cgi?sstr=3766993",
    "absolute_magnitude_h": 27.1,
    "estimated_diameter": {
        "kilometers": {
            "estimated_diameter_min": 0.0101054342,
            "estimated_diameter_max": 0.0225964377
        },
        "meters": {
            "estimated_diameter_min": 10.1054341542,
            "estimated_diameter_max": 22.5964377109
        },
        "miles": {
            "estimated_diameter_min": 0.0062792237,
            "estimated_diameter_max": 0.0140407711
        },
        "feet": {
            "estimated_diameter_min": 33.1543125905,
            "estimated_diameter_max": 74.1352966996
        }
    },
    "is_potentially_hazardous_asteroid": false,
    "close_approach_data": [
        {
            "close_approach_date": "2011-06-12",
            "close_approach_date_full": "2011-Jun-12 18:41",
            "epoch_date_close_approach": 1307904060000,
            "relative_velocity": {
                "kilometers_per_second": "21.3199191254",
                "kilometers_per_hour": "76751.7088513694",
                "miles_per_hour": "47690.5270915634"
            },
            "miss_distance": {
                "astronomical": "0.4098141602",
                "lunar": "159.4177083178",
                "kilometers": "61307325.461758774",
                "miles": "38094605.5716041212"
            },
            "orbiting_body": "Earth"
        },
        {
            "close_approach_date": "2013-05-27",
            "close_approach_date_full": "2013-May-27 04:19",
            "epoch_date_close_approach": 1369628340000,
            "relative_velocity": {
                "kilometers_per_second": "13.3169749705",
                "kilometers_per_hour": "47941.1098936996",
                "miles_per_hour": "29788.741311449"
            },
            "miss_distance": {
                "astronomical": "0.1503972927",
                "lunar": "58.5045468603",
                "kilometers": "22499114.641686549",
                "miles": "13980301.5631464162"
            },
            "orbiting_body": "Earth"
        },
        {
            "close_approach_date": "2017-02-02",
            "close_approach_date_full": "2017-Feb-02 04:43",
            "epoch_date_close_approach": 1486010580000,
            "relative_velocity": {
                "kilometers_per_second": "9.8098657749",
                "kilometers_per_hour": "35315.5167896621",
                "miles_per_hour": "21943.6887518876"
            },
            "miss_distance": {
                "astronomical": "0.0143288944",
                "lunar": "5.5739399216",
                "kilometers": "2143572.081694928",
                "miles": "1331953.9280408864"
            },
            "orbiting_body": "Earth"
        },
        {
            "close_approach_date": "2019-01-11",
            "close_approach_date_full": "2019-Jan-11 13:44",
            "epoch_date_close_approach": 1547214240000,
            "relative_velocity": {
                "kilometers_per_second": "19.3682442563",
                "kilometers_per_hour": "69725.6793226163",
                "miles_per_hour": "43324.8255768779"
            },
            "miss_distance": {
                "astronomical": "0.327646585",
                "lunar": "127.454521565",
                "kilometers": "49015231.22877395",
                "miles": "30456652.39182251"
            },
            "orbiting_body": "Earth"
        }
    ],
    "orbital_data": {
        "orbit_id": "4",
        "orbit_determination_date": "2017-04-06 08:20:51",
        "first_observation_date": "2017-01-26",
        "last_observation_date": "2017-01-31",
        "data_arc_in_days": 5,
        "observations_used": 25,
        "orbit_uncertainty": "8",
        "minimum_orbit_intersection": ".0123033",
        "jupiter_tisserand_invariant": "4.314",
        "epoch_osculation": "2457780.5",
        "eccentricity": ".4274650993881138",
        "semi_major_axis": "1.564805328505067",
        "inclination": "4.344627795388858",
        "ascending_node_longitude": "125.215521158871",
        "orbital_period": "714.9717813884986",
        "perihelion_distance": ".8959056632325986",
        "perihelion_argument": "55.8169258633403",
        "aphelion_distance": "2.233704993777535",
        "perihelion_time": "2457823.228891183339",
        "mean_anomaly": "338.4853035792141",
        "mean_motion": ".503516375570611",
        "equinox": "J2000",
        "orbit_class": {
            "orbit_class_type": "APO",
            "orbit_class_description": "Near-Earth asteroid orbits which cross the Earth’s orbit similar to that of 1862 Apollo",
            "orbit_class_range": "a (semi-major axis) > 1.0 AU; q (perihelion) < 1.017 AU"
        }
    },
    "is_sentry_object": false
}